{
  "norad_id": 53806,
  "name": "STARLINK-4768",
  "history": [
    {
      "epoch": "2026-04-16T14:39:01.230624Z",
      "apogee_km": 540.7506889234428,
      "perigee_km": 538.7763201194521,
      "latitude_deg": 4.651471801352658e-05,
      "longitude_deg": 14.21943987898168,
      "height_km": 540.6097818493065,
      "semi_major_axis_km": 6917.900504521447,
      "eccentricity": 0.0001427,
      "inclination_deg": 53.2165,
      "raan_deg": 78.7302,
      "arg_perigee_deg": 87.1413,
      "mean_anomaly_deg": 272.9743,
      "mean_motion_rev_day": 15.08833419
    },
    {
      "epoch": "2026-04-17T22:26:44.119968Z",
      "apogee_km": 540.7251611637803,
      "perigee_km": 538.7972812874887,
      "latitude_deg": -3.0698384701137994e-05,
      "longitude_deg": -109.96250570985511,
      "height_km": 540.5887193979539,
      "semi_major_axis_km": 6917.898221225634,
      "eccentricity": 0.00013934,
      "inclination_deg": 53.2172,
      "raan_deg": 72.7828,
      "arg_perigee_deg": 85.9459,
      "mean_anomaly_deg": 274.1692,
      "mean_motion_rev_day": 15.08834166
    },
    {
      "epoch": "2026-04-18T20:42:07.998048Z",
      "apogee_km": 540.7521610880849,
      "perigee_km": 538.7515076371874,
      "latitude_deg": -4.231178346582901e-05,
      "longitude_deg": -88.88875370619616,
      "height_km": 540.5880030010677,
      "semi_major_axis_km": 6917.888834362636,
      "eccentricity": 0.0001446,
      "inclination_deg": 53.2177,
      "raan_deg": 68.6201,
      "arg_perigee_deg": 86.5923,
      "mean_anomaly_deg": 273.5234,
      "mean_motion_rev_day": 15.08837237
    },
    {
      "epoch": "2026-04-19T14:11:22.349760Z",
      "apogee_km": 540.7946683322016,
      "perigee_km": 538.6916327664349,
      "latitude_deg": -5.703606255440006e-06,
      "longitude_deg": 4.811995258090442,
      "height_km": 540.5845520803214,
      "semi_major_axis_km": 6917.880150549318,
      "eccentricity": 0.000152,
      "inclination_deg": 53.2178,
      "raan_deg": 65.3488,
      "arg_perigee_deg": 87.0493,
      "mean_anomaly_deg": 273.0673,
      "mean_motion_rev_day": 15.08840078
    },
    {
      "epoch": "2026-04-20T14:02:09.915936Z",
      "apogee_km": 540.8718963464862,
      "perigee_km": 538.6364489929492,
      "latitude_deg": 1.2962138154684626e-06,
      "longitude_deg": 1.6736634038237341,
      "height_km": 540.5885617284674,
      "semi_major_axis_km": 6917.891172669718,
      "eccentricity": 0.00016157,
      "inclination_deg": 53.2174,
      "raan_deg": 60.888,
      "arg_perigee_deg": 86.8735,
      "mean_anomaly_deg": 273.2442,
      "mean_motion_rev_day": 15.08836472
    },
    {
      "epoch": "2026-04-21T13:52:56.470368Z",
      "apogee_km": 540.7749446841281,
      "perigee_km": 538.6995824050637,
      "latitude_deg": -1.810503476915675e-05,
      "longitude_deg": -1.4615615639432857,
      "height_km": 540.7332798327571,
      "semi_major_axis_km": 6917.874263544595,
      "eccentricity": 0.00015,
      "inclination_deg": 53.2165,
      "raan_deg": 56.4261,
      "arg_perigee_deg": 95.5628,
      "mean_anomaly_deg": 264.5535,
      "mean_motion_rev_day": 15.08842004
    },
    {
      "epoch": "2026-04-22T20:05:16.348992Z",
      "apogee_km": 540.8302704139714,
      "perigee_km": 538.6663558880182,
      "latitude_deg": 5.560211194740636e-05,
      "longitude_deg": -101.43413420099931,
      "height_km": 540.7618618037816,
      "semi_major_axis_km": 6917.885313150994,
      "eccentricity": 0.0001564,
      "inclination_deg": 53.2173,
      "raan_deg": 50.7768,
      "arg_perigee_deg": 96.2685,
      "mean_anomaly_deg": 263.8486,
      "mean_motion_rev_day": 15.08838389
    },
    {
      "epoch": "2026-04-23T05:37:35.359392Z",
      "apogee_km": 540.7918349068959,
      "perigee_km": 538.7127324615767,
      "latitude_deg": 1.8638651407963252e-05,
      "longitude_deg": 113.31119054570048,
      "height_km": 540.7336109084896,
      "semi_major_axis_km": 6917.889283684236,
      "eccentricity": 0.00015027,
      "inclination_deg": 53.2179,
      "raan_deg": 48.9931,
      "arg_perigee_deg": 94.7324,
      "mean_anomaly_deg": 265.384,
      "mean_motion_rev_day": 15.0883709
    },
    {
      "epoch": "2026-04-24T11:49:54.761952Z",
      "apogee_km": 540.7820052108827,
      "perigee_km": 538.703874077014,
      "latitude_deg": 1.0413478750127038e-05,
      "longitude_deg": 13.340547353435765,
      "height_km": 540.7102616786121,
      "semi_major_axis_km": 6917.879939643948,
      "eccentricity": 0.0001502,
      "inclination_deg": 53.2185,
      "raan_deg": 43.3438,
      "arg_perigee_deg": 93.9565,
      "mean_anomaly_deg": 266.1599,
      "mean_motion_rev_day": 15.08840147
    },
    {
      "epoch": "2026-04-25T11:40:41.952288Z",
      "apogee_km": 540.8700421763924,
      "perigee_km": 538.6217302383748,
      "latitude_deg": -1.6767650638057693e-05,
      "longitude_deg": 10.205461695657478,
      "height_km": 540.6894704157106,
      "semi_major_axis_km": 6917.882886207383,
      "eccentricity": 0.0001625,
      "inclination_deg": 53.2192,
      "raan_deg": 38.8847,
      "arg_perigee_deg": 92.45,
      "mean_anomaly_deg": 267.6678,
      "mean_motion_rev_day": 15.08839183
    },
    {
      "epoch": "2026-04-26T22:39:11.739168Z",
      "apogee_km": 540.858304213818,
      "perigee_km": 538.678748898621,
      "latitude_deg": -1.9096704245877714e-05,
      "longitude_deg": -162.39722132109145,
      "height_km": 540.5911421012072,
      "semi_major_axis_km": 6917.905526556219,
      "eccentricity": 0.00015753,
      "inclination_deg": 53.2187,
      "raan_deg": 32.3425,
      "arg_perigee_deg": 86.1626,
      "mean_anomaly_deg": 273.9546,
      "mean_motion_rev_day": 15.08831776
    },
    {
      "epoch": "2026-04-27T11:22:16.245696Z",
      "apogee_km": 540.7851612570912,
      "perigee_km": 538.6862786738538,
      "latitude_deg": -2.5717939975334366e-05,
      "longitude_deg": 3.932790624325326,
      "height_km": 540.5409266309287,
      "semi_major_axis_km": 6917.872719965472,
      "eccentricity": 0.0001517,
      "inclination_deg": 53.2191,
      "raan_deg": 29.9636,
      "arg_perigee_deg": 85.0542,
      "mean_anomaly_deg": 275.0623,
      "mean_motion_rev_day": 15.08842509
    },
    {
      "epoch": "2026-04-28T11:13:03.165600Z",
      "apogee_km": 540.7382464918282,
      "perigee_km": 538.7265300737154,
      "latitude_deg": -5.499653133754764e-05,
      "longitude_deg": 0.7972345410770875,
      "height_km": 540.5150422526309,
      "semi_major_axis_km": 6917.869388282771,
      "eccentricity": 0.0001454,
      "inclination_deg": 53.2189,
      "raan_deg": 25.5029,
      "arg_perigee_deg": 83.5436,
      "mean_anomaly_deg": 276.5721,
      "mean_motion_rev_day": 15.08843599
    },
    {
      "epoch": "2026-04-29T20:36:09.326592Z",
      "apogee_km": 540.861145065478,
      "perigee_km": 538.6239028274331,
      "latitude_deg": -5.096310518508249e-05,
      "longitude_deg": -147.59550773069998,
      "height_km": 540.7450642618544,
      "semi_major_axis_km": 6917.879523946455,
      "eccentricity": 0.0001617,
      "inclination_deg": 53.2195,
      "raan_deg": 19.2569,
      "arg_perigee_deg": 95.4866,
      "mean_anomaly_deg": 264.631,
      "mean_motion_rev_day": 15.08840283
    },
    {
      "epoch": "2026-04-30T02:57:41.914656Z",
      "apogee_km": 540.7373243831362,
      "perigee_km": 538.741793710913,
      "latitude_deg": -3.300436921084291e-05,
      "longitude_deg": 115.56906500296465,
      "height_km": 540.6508295598303,
      "semi_major_axis_km": 6917.876559047024,
      "eccentricity": 0.00014423,
      "inclination_deg": 53.2188,
      "raan_deg": 18.0684,
      "arg_perigee_deg": 90.8915,
      "mean_anomaly_deg": 269.2242,
      "mean_motion_rev_day": 15.08841253
    },
    {
      "epoch": "2026-05-02T02:39:16.203744Z",
      "apogee_km": 540.6557792716558,
      "perigee_km": 538.8474431886798,
      "latitude_deg": 1.5927897271224546e-05,
      "longitude_deg": 109.29675210067113,
      "height_km": 540.6154769225335,
      "semi_major_axis_km": 6917.888611230168,
      "eccentricity": 0.0001307,
      "inclination_deg": 53.2176,
      "raan_deg": 9.1476,
      "arg_perigee_deg": 87.976,
      "mean_anomaly_deg": 272.1382,
      "mean_motion_rev_day": 15.0883731
    }
  ]
}